{
  "type": "FeatureCollection",
  "features": [
    {
      "type": "Feature",
      "properties": {
        "norad_id": 34540,
        "name": "IRIDIUM 33 DEB",
        "group": "iridium-33-debris",
        "lat": 37.72711262791641,
        "lon": 120.64820679604233,
        "alt_km": 628.8705276678993,
        "timestamp": "2025-12-21T16:47:55.123695+00:00",
        "meta_object_name": "IRIDIUM 33 DEB",
        "meta_object_id": "1997-051JH",
        "meta_epoch": "2025-12-21T03:12:48.465792",
        "meta_mean_motion": 14.7547443,
        "meta_eccentricity": 0.00177108,
        "meta_inclination": 86.311,
        "meta_ra_of_asc_node": 303.768,
        "meta_arg_of_pericenter": 130.8204,
        "meta_mean_anomaly": 246.4988,
        "meta_ephemeris_type": 0,
        "meta_classification_type": "U",
        "meta_norad_cat_id": 34540,
        "meta_element_set_no": 999,
        "meta_rev_at_epoch": 89145,
        "meta_bstar": 0.0010237596,
        "meta_mean_motion_dot": 7.004e-05,
        "meta_mean_motion_ddot": 0,
        "tle_line1": "1 34540U 97051JH  25355.13389428  .00007004  00000+0  10238-2 0  9992",
        "tle_line2": "2 34540  86.3110 303.7680 0017710 130.8204 246.4988 14.75474430891455"
      },
      "geometry": {
        "type": "Point",
        "coordinates": [
          120.64820679604233,
          37.72711262791641
        ]
      }
    },
    {
      "type": "Feature",
      "properties": {
        "norad_id": 34648,
        "name": "IRIDIUM 33 DEB",
        "group": "iridium-33-debris",
        "lat": 35.97220710582111,
        "lon": -79.04634778450561,
        "alt_km": 924.7802408171401,
        "timestamp": "2025-12-21T16:47:55.123706+00:00",
        "meta_object_name": "IRIDIUM 33 DEB",
        "meta_object_id": "1997-051JZ",
        "meta_epoch": "2025-12-21T01:19:00.379200",
        "meta_mean_motion": 14.11717804,
        "meta_eccentricity": 0.01800717,
        "meta_inclination": 86.3908,
        "meta_ra_of_asc_node": 278.5885,
        "meta_arg_of_pericenter": 272.8374,
        "meta_mean_anomaly": 85.2213,
        "meta_ephemeris_type": 0,
        "meta_classification_type": "U",
        "meta_norad_cat_id": 34648,
        "meta_element_set_no": 999,
        "meta_rev_at_epoch": 85078,
        "meta_bstar": 0.0043851239,
        "meta_mean_motion_dot": 9.319e-05,
        "meta_mean_motion_ddot": 0,
        "tle_line1": "1 34648U 97051JZ  25355.05486550  .00009319  00000+0  43851-2 0  9994",
        "tle_line2": "2 34648  86.3908 278.5885 0180071 272.8374  85.2213 14.11717804850787"
      },
      "geometry": {
        "type": "Point",
        "coordinates": [
          -79.04634778450561,
          35.97220710582111
        ]
      }
    },
    {
      "type": "Feature",
      "properties": {
        "norad_id": 34651,
        "name": "IRIDIUM 33 DEB",
        "group": "iridium-33-debris",
        "lat": -11.98957077543371,
        "lon": -42.44346927043183,
        "alt_km": 711.6183878271313,
        "timestamp": "2025-12-21T16:47:55.123716+00:00",
        "meta_object_name": "IRIDIUM 33 DEB",
        "meta_object_id": "1997-051KC",
        "meta_epoch": "2025-12-19T16:44:48.420096",
        "meta_mean_motion": 14.25922062,
        "meta_eccentricity": 0.01422464,
        "meta_inclination": 86.2827,
        "meta_ra_of_asc_node": 137.6175,
        "meta_arg_of_pericenter": 181.9677,
        "meta_mean_anomaly": 178.0974,
        "meta_ephemeris_type": 0,
        "meta_classification_type": "U",
        "meta_norad_cat_id": 34651,
        "meta_element_set_no": 999,
        "meta_rev_at_epoch": 85995,
        "meta_bstar": 0.0022061693,
        "meta_mean_motion_dot": 5.865e-05,
        "meta_mean_motion_ddot": 0,
        "tle_line1": "1 34651U 97051KC  25353.69778264  .00005865  00000+0  22062-2 0  9995",
        "tle_line2": "2 34651  86.2827 137.6175 0142246 181.9677 178.0974 14.25922062859957"
      },
      "geometry": {
        "type": "Point",
        "coordinates": [
          -42.44346927043183,
          -11.98957077543371
        ]
      }
    },
    {
      "type": "Feature",
      "properties": {
        "norad_id": 34652,
        "name": "IRIDIUM 33 DEB",
        "group": "iridium-33-debris",
        "lat": -30.947089776327203,
        "lon": -26.19344441724886,
        "alt_km": 684.3555958633387,
        "timestamp": "2025-12-21T16:47:55.123727+00:00",
        "meta_object_name": "IRIDIUM 33 DEB",
        "meta_object_id": "1997-051KD",
        "meta_epoch": "2025-12-21T05:29:24.538272",
        "meta_mean_motion": 14.62128423,
        "meta_eccentricity": 0.0025487,
        "meta_inclination": 86.3314,
        "meta_ra_of_asc_node": 336.221,
        "meta_arg_of_pericenter": 267.1492,
        "meta_mean_anomaly": 103.1146,
        "meta_ephemeris_type": 0,
        "meta_classification_type": "U",
        "meta_norad_cat_id": 34652,
        "meta_element_set_no": 999,
        "meta_rev_at_epoch": 88608,
        "meta_bstar": 0.00068722,
        "meta_mean_motion_dot": 3.491e-05,
        "meta_mean_motion_ddot": 0,
        "tle_line1": "1 34652U 97051KD  25355.22875623  .00003491  00000+0  68722-3 0  9991",
        "tle_line2": "2 34652  86.3314 336.2210 0025487 267.1492 103.1146 14.62128423886080"
      },
      "geometry": {
        "type": "Point",
        "coordinates": [
          -26.19344441724886,
          -30.947089776327203
        ]
      }
    },
    {
      "type": "Feature",
      "properties": {
        "norad_id": 34690,
        "name": "IRIDIUM 33 DEB",
        "group": "iridium-33-debris",
        "lat": -33.471791180990444,
        "lon": 30.696015445968374,
        "alt_km": 709.3598242869894,
        "timestamp": "2025-12-21T16:47:55.123737+00:00",
        "meta_object_name": "IRIDIUM 33 DEB",
        "meta_object_id": "1997-051KM",
        "meta_epoch": "2025-12-21T02:14:02.861088",
        "meta_mean_motion": 14.55122739,
        "meta_eccentricity": 0.00098763,
        "meta_inclination": 86.3773,
        "meta_ra_of_asc_node": 33.3605,
        "meta_arg_of_pericenter": 1.7251,
        "meta_mean_anomaly": 27.9675,
        "meta_ephemeris_type": 0,
        "meta_classification_type": "U",
        "meta_norad_cat_id": 34690,
        "meta_element_set_no": 999,
        "meta_rev_at_epoch": 88216,
        "meta_bstar": 0.00028932758,
        "meta_mean_motion_dot": 1.27e-05,
        "meta_mean_motion_ddot": 0,
        "tle_line1": "1 34690U 97051KM  25355.09308867  .00001270  00000+0  28933-3 0  9992",
        "tle_line2": "2 34690  86.3773  33.3605 0009876   1.7251  27.9675 14.55122739882164"
      },
      "geometry": {
        "type": "Point",
        "coordinates": [
          30.696015445968374,
          -33.471791180990444
        ]
      }
    },
    {
      "type": "Feature",
      "properties": {
        "norad_id": 34693,
        "name": "IRIDIUM 33 DEB",
        "group": "iridium-33-debris",
        "lat": -54.38261228140495,
        "lon": 124.54178602894942,
        "alt_km": 490.5203422439972,
        "timestamp": "2025-12-21T16:47:55.123747+00:00",
        "meta_object_name": "IRIDIUM 33 DEB",
        "meta_object_id": "1997-051KQ",
        "meta_epoch": "2025-12-21T08:29:27.823200",
        "meta_mean_motion": 15.29864517,
        "meta_eccentricity": 0.0011323,
        "meta_inclination": 86.305,
        "meta_ra_of_asc_node": 299.5386,
        "meta_arg_of_pericenter": 37.7306,
        "meta_mean_anomaly": 91.6226,
        "meta_ephemeris_type": 0,
        "meta_classification_type": "U",
        "meta_norad_cat_id": 34693,
        "meta_element_set_no": 999,
        "meta_rev_at_epoch": 89046,
        "meta_bstar": 0.0038893,
        "meta_mean_motion_dot": 0.00114155,
        "meta_mean_motion_ddot": 0,
        "tle_line1": "1 34693U 97051KQ  25355.35379425  .00114155  00000+0  38893-2 0  9994",
        "tle_line2": "2 34693  86.3050 299.5386 0011323  37.7306  91.6226 15.29864517890468"
      },
      "geometry": {
        "type": "Point",
        "coordinates": [
          124.54178602894942,
          -54.38261228140495
        ]
      }
    },
    {
      "type": "Feature",
      "properties": {
        "norad_id": 34696,
        "name": "IRIDIUM 33 DEB",
        "group": "iridium-33-debris",
        "lat": 72.63708196990972,
        "lon": 35.67937700517644,
        "alt_km": 645.6507319068332,
        "timestamp": "2025-12-21T16:47:55.123757+00:00",
        "meta_object_name": "IRIDIUM 33 DEB",
        "meta_object_id": "1997-051KT",
        "meta_epoch": "2025-12-20T03:03:36.896832",
        "meta_mean_motion": 14.65425134,
        "meta_eccentricity": 0.0073881,
        "meta_inclination": 86.1833,
        "meta_ra_of_asc_node": 24.0835,
        "meta_arg_of_pericenter": 142.6074,
        "meta_mean_anomaly": 281.0712,
        "meta_ephemeris_type": 0,
        "meta_classification_type": "U",
        "meta_norad_cat_id": 34696,
        "meta_element_set_no": 999,
        "meta_rev_at_epoch": 86781,
        "meta_bstar": 0.0025217059,
        "meta_mean_motion_dot": 0.00014237,
        "meta_mean_motion_ddot": 0,
        "tle_line1": "1 34696U 97051KT  25354.12751038  .00014237  00000+0  25217-2 0  9991",
        "tle_line2": "2 34696  86.1833  24.0835 0073881 142.6074 281.0712 14.65425134867818"
      },
      "geometry": {
        "type": "Point",
        "coordinates": [
          35.67937700517644,
          72.63708196990972
        ]
      }
    }
  ]
}